NSS-11                  
1 26554U 00059A   26192.51989154  .00000029  00000+0  00000+0 0  9997
2 26554   2.1866  81.0980 0003023  29.8164 181.6793  1.00275184 41537
AMC-6                   
1 26580U 00067A   26192.47475235  .00000094  00000+0  00000+0 0  9992
2 26580   0.2114  83.5918 0003812  40.8671 200.7880  1.00271269 94135
AMC-15                  
1 28446U 04041A   26192.47285300 -.00000083  00000+0  00000+0 0  9992
2 28446   0.0364 300.9859 0002280 187.2543 226.3115  1.00271308 79542
NSS-10                  
1 28526U 05003A   26192.48619972 -.00000253  00000+0  00000+0 0  9996
2 28526   6.5079  70.1545 0002571  36.8050 320.0174  1.00271115 53396
ASTRA 1KR               
1 29055U 06012A   26192.35481302  .00000125  00000+0  00000+0 0  9992
2 29055   0.5336  83.1976 0003234  23.9452 328.8708  1.00272928 45939
ASTRA 1L                
1 31306U 07016A   26192.34623299 -.00000180  00000+0  00000+0 0  9993
2 31306   1.3814  81.3786 0005248  33.1637 274.8448  1.00270600 45223
ASTRA 4A                
1 32299U 07057A   26192.36711462  .00000039  00000+0  00000+0 0  9994
2 32299   0.0487 281.6001 0002260 196.1054 308.5269  1.00270791 51882
ASTRA 1M                
1 33436U 08057A   26192.35489970  .00000127  00000+0  00000+0 0  9992
2 33436   0.3558  82.7320 0004777  42.0845 311.6331  1.00274407 45970
NSS-9                   
1 33749U 09008A   26192.51989154  .00000076  00000+0  00000+0 0  9996
2 33749   1.3218  82.4180 0001859  18.5955 198.6327  1.00270662 63764
SES-7 (PROTOSTAR 2)     
1 34941U 09027A   26192.47406122 -.00000339  00000+0  00000+0 0  9999
2 34941   0.0218  57.4882 0000460 180.6953 330.1059  1.00270044 62872
NSS-12                  
1 36032U 09058A   26192.50491980  .00000078  00000+0  00000+0 0  9995
2 36032   0.0444 286.0876 0004407 150.1082  91.9775  1.00268059 61160
SES-1                   
1 36516U 10016A   26192.20121895 -.00000107  00000+0  00000+0 0  9994
2 36516   0.0449 283.9782 0002451 182.6005 153.9573  1.00270296 59276
ASTRA 3B                
1 36581U 10021A   26192.35550637  .00000142  00000+0  00000+0 0  9996
2 36581   1.5304  83.2632 0004271  22.6917 334.8198  1.00275240 59105
SES-3                   
1 37748U 11035A   26192.47328632 -.00000097  00000+0  00000+0 0  9999
2 37748   1.3865  82.8104 0001914  28.2289 245.7339  1.00271388 54836
ASTRA 1N                
1 37775U 11041A   26192.49746645  .00000125  00000+0  00000+0 0  9997
2 37775   0.0746  33.8301 0005569  74.4472  19.4136  1.00269323 44771
SES-2                   
1 37809U 11049A   26192.47640633 -.00000190  00000+0  00000+0 0  9994
2 37809   0.1181  91.5548 0002691  20.3336 262.0025  1.00270998 54201
QUETZSAT 1              
1 37826U 11054A   26192.47839969 -.00000236  00000+0  00000+0 0  9992
2 37826   0.0101   1.0402 0002551 117.3937 266.1813  1.00272234 50116
SES-4                   
1 38087U 12007A   26192.34666632 -.00000162  00000+0  00000+0 0  9990
2 38087   0.0189  59.8877 0002422  50.5099 281.6613  1.00269670 52463
SES-5                   
1 38652U 12036A   26192.36183558  .00000040  00000+0  00000+0 0  9997
2 38652   0.0459 319.7123 0001910 150.4771 314.3154  1.00269357 44693
ASTRA 2F                
1 38778U 12051A   26192.49911311  .00000155  00000+0  00000+0 0  9990
2 38778   0.0565 238.2936 0002183 301.3239 317.6857  1.00264291 41387
SES-6                   
1 39172U 13026A   26192.48559306 -.00000255  00000+0  00000+0 0  9995
2 39172   0.0330 310.3333 0002289 171.0973 302.2745  1.00272008 47964
O3B FM5                 
1 39188U 13031A   26192.42662705 -.00000015  00000+0  00000+0 0  9994
2 39188   0.0955 336.4422 0002827 119.2557 264.3336  5.00115569238252
O3B FM4                 
1 39189U 13031B   26192.14628715 -.00000014  00000+0  00000+0 0  9996
2 39189   0.0406 347.0894 0004907 107.8992 265.0669  5.00115523238248
O3B FM2                 
1 39190U 13031C   26192.41165183 -.00000015  00000+0  00000+0 0  9994
2 39190   0.0352 343.5829 0002724 122.1845 254.2618  5.00116035238323
O3B PFM                 
1 39191U 13031D   26191.82610436 -.00000013  00000+0  00000+0 0  9993
2 39191   0.0668 347.3000 0005303 111.4461 261.3136  5.00115815237854
ASTRA 2E                
1 39285U 13056A   26192.49919978  .00000156  00000+0  00000+0 0  9998
2 39285   0.0823 308.7866 0002760 177.7018  11.1240  1.00273206 46668
SES-8                   
1 39460U 13071A   26192.52825212 -.00000264  00000+0  00000+0 0  9992
2 39460   0.0492 263.1311 0002608 207.4066 104.0679  1.00270961 44671
ASTRA 5B                
1 39617U 14011B   26192.49815978  .00000143  00000+0  00000+0 0  9990
2 39617   0.0852 298.0582 0001979 190.1979   3.9862  1.00272232 44914
O3B FM3                 
1 40079U 14038A   26192.29257066 -.00000014  00000+0  00000+0 0  9997
2 40079   0.0478 352.8036 0002635 171.0324 196.1717  5.00115680214254
O3B FM7                 
1 40080U 14038B   26192.23869366 -.00000014  00000+0  00000+0 0  9995
2 40080   0.0453 343.9930 0003621  94.9977 281.0494  5.00115631219084
O3B FM6                 
1 40081U 14038C   26192.26566704 -.00000014  00000+0  00000+0 0  9999
2 40081   0.0464 349.8023 0002606 119.3255 250.8997  5.00115710219022
O3B FM8                 
1 40082U 14038D   26192.31890502 -.00000014  00000+0  00000+0 0  9992
2 40082   0.0460 348.5018 0002763 121.0942 250.4331  5.00116068219155
O3B FM10                
1 40348U 14083A   26190.34727304 -.00000010  00000+0  00000+0 0  9993
2 40348   0.0415 347.0289 0004898 105.1910 267.8366  5.00115429211009
O3B FM11                
1 40349U 14083B   26192.35880700 -.00000015  00000+0  00000+0 0  9992
2 40349   0.0552 351.6594 0002550 101.5150 266.8540  5.00115505211122
O3B FM12                
1 40350U 14083C   26189.38744489 -.00000010  00000+0  00000+0 0  9991
2 40350   0.0543 352.1670 0002501 111.4391 256.4223  5.00115947210984
O3B FM9                 
1 40351U 14083D   26192.41262691 -.00000015  00000+0  00000+0 0  9995
2 40351   0.0560 350.7964 0002677 117.1796 252.0523  5.00115992211289
ASTRA 2G                
1 40364U 14089A   26192.49911311  .00000156  00000+0  00000+0 0  9998
2 40364   0.0476  16.3302 0004252  61.4995  59.4674  1.00273421 42212
SES-9                   
1 41380U 16013A   26192.47406122 -.00000339  00000+0  00000+0 0  9997
2 41380   0.0146 332.5333 0002116 133.1450 102.6698  1.00270691 37680
SES-10                  
1 42432U 17017A   26192.40908432 -.00000266  00000+0  00000+0 0  9994
2 42432   0.0161  41.5240 0002609  76.9438 251.2260  1.00271217 33998
SES-15                  
1 42709U 17026A   26192.49766963  .00000065  00000+0  00000+0 0  9997
2 42709   0.0255 325.2354 0000838 172.2084 201.9672  1.00277471  7679
SES-11 (ECHOSTAR 105)   
1 42967U 17063A   26192.47285300 -.00000084  00000+0  00000+0 0  9995
2 42967   0.0460 289.4181 0002714 197.0898 228.1611  1.00272938 31961
SES-14                  
1 43175U 18012B   26192.48411971 -.00000273  00000+0  00000+0 0  9998
2 43175   0.0123  22.7705 0000796  89.9837 303.4160  1.00270302  7264
O3B FM15                
1 43231U 18024A   26192.27955251 -.00000014  00000+0  00000+0 0  9998
2 43231   0.0526   0.0397 0002599 109.1204 250.8673  5.00115769152237
O3B FM16                
1 43232U 18024B   26192.33187626 -.00000015  00000+0  00000+0 0  9990
2 43232   0.0529   4.4587 0002620 102.8413 252.7279  5.00115949152151
O3B FM14                
1 43233U 18024C   26192.17280096 -.00000014  00000+0  00000+0 0  9997
2 43233   0.0517   5.5439 0002878 102.9447 251.5421  5.00115729152152
O3B FM13                
1 43234U 18024D   26188.24086838 -.00000009  00000+0  00000+0 0  9993
2 43234   0.0523 325.0247 0002391  87.3694 307.6281  5.00115686152066
SES-12                  
1 43488U 18049A   26192.49211368 -.00000263  00000+0  00000+0 0  9993
2 43488   0.0116   5.3970 0000904 246.1632 309.9975  1.00269414 29660
O3B FM20                
1 44112U 19020A   26192.19886479 -.00000014  00000+0  00000+0 0  9990
2 44112   0.0525 356.2230 0002366 105.7889 258.0140  5.00115600132769
O3B FM19                
1 44113U 19020B   26189.22751754 -.00000009  00000+0  00000+0 0  9992
2 44113   0.0743 335.0245 0003766 112.1003 272.9190  5.00115960132497
O3B FM17                
1 44114U 19020C   26191.50648916 -.00000013  00000+0  00000+0 0  9997
2 44114   0.0361  10.7949 0002574  96.6283 252.6047  5.00115571132690
O3B FM18                
1 44115U 19020D   26191.45282961 -.00000012  00000+0  00000+0 0  9995
2 44115   0.0529 356.1273 0002746 112.9421 250.9602  5.00115376132816
SES-17                  
1 49332U 21095A   26192.21382524 -.00000265  00000+0  00000+0 0  9997
2 49332   0.0219  45.8226 0001106  94.4892 158.6910  1.00271236 18096
SES-22                  
1 52933U 22071A   26192.46609295  .00000111  00000+0  00000+0 0  9996
2 52933   0.0153 318.4999 0000798 144.1800 215.4697  1.00269935  7767
SES-20                  
1 53960U 22123A   26192.34060527 -.00000095  00000+0  00000+0 0  9993
2 53960   0.0158  63.9469 0001994  39.3505 205.4723  1.00274431 13777
SES-21                  
1 53961U 22123B   26192.50322435  .00000000  00000+0  00000+0 0  9996
2 53961   0.0388  32.2303 0000972  81.1605 226.2549  1.00267770  7453
O3B MPOWER F1           
1 54755U 22174A   26192.25131093 -.00000014  00000+0  00000+0 0  9990
2 54755   0.0496 339.5870 0006608 141.4029  96.9577  5.00114780 66565
O3B MPOWER F2           
1 54756U 22174B   26192.29693412 -.00000014  00000+0  00000+0 0  9993
2 54756   0.0455 339.8272 0005802 124.8389 255.3975  5.00114919 66656
SES-18                  
1 55970U 23038A   26192.47319965 -.00000095  00000+0  00000+0 0  9999
2 55970   0.0491 264.6373 0000700 308.1667 143.8362  1.00271318 12341
SES-19                  
1 55971U 23038B   26192.47475235  .00000093  00000+0  00000+0 0  9990
2 55971   0.0224 313.5944 0001617 168.4150 203.3896  1.00272572 12332
O3B MPOWER F4           
1 56367U 23059A   26192.16127682 -.00000014  00000+0  00000+0 0  9993
2 56367   0.0630 350.5986 0007726 122.9027 246.5794  5.00115402 59806
O3B MPOWER F3           
1 56368U 23059B   26192.39430698 -.00000015  00000+0  00000+0 0  9994
2 56368   0.0637 349.8236 0006679 117.0187 253.2303  5.00116411 55933
O3B MPOWER F5           
1 58346U 23175A   26192.29540958 -.00000014  00000+0  00000+0 0  9990
2 58346   0.0518   9.5039 0005456 118.4260 232.1187  5.00115869 50644
O3B MPOWER F6           
1 58347U 23175B   26192.39588616 -.00000015  00000+0  00000+0 0  9996
2 58347   0.0538   1.1495 0004438 107.2945 251.6035  5.00115687 49561
ASTRA 1P (SES-24)       
1 60086U 24115A   26192.28358821  .00000126  00000+0  00000+0 0  9997
2 60086   0.0655 331.5375 0000453 245.0547 193.9008  1.00262077  7433
O3B MPOWER F7           
1 62362U 24244A   26192.26239293 -.00000014  00000+0  00000+0 0  9995
2 62362   0.0662 343.5701 0005940 122.3620 254.1328  5.00115267 27733
O3B MPOWER F8           
1 62363U 24244B   26192.42923078 -.00000015  00000+0  00000+0 0  9996
2 62363   0.0143 359.4520 0005786  99.2663 261.3465  5.00115042 22086
O3B MPOWER F9           
1 64866U 25153A   26192.36261795 -.00000015  00000+0  00000+0 0  9990
2 64866   0.0609   6.1042 0006687 122.5111 231.4439  5.00115631 20774
O3B MPOWER F10          
1 64867U 25153B   26192.32866380 -.00000015  00000+0  00000+0 0  9998
2 64867   0.0581   2.5744 0002335 245.4037 111.9963  5.00114888 23232
